ZACUBE-2                
1 43907U 18111AH  22279.54532934  .00013620  00000+0  47791-3 0  9994
2 43907  97.1724 161.9096 0020915  47.7504  48.5852 15.29326014210267
LUME 1                  
1 43908U 18111AJ  22279.40451587  .00023257  00000+0  74026-3 0  9992
2 43908  97.1738 163.7570 0019030  42.9242 317.3481 15.32400855210379
AOBA VELOX-IV           
1 43940U 19003J   22279.33674998  .00061407  00000+0  13770-2 0  9991
2 43940  97.1177 312.2504 0017427 103.6663 256.6527 15.43039647207191
MOVE-IIB                
1 44398U 19038N   22279.57244082  .00023600  00000+0  10557-2 0  9993
2 44398  97.6408 250.1702 0022986 103.0114 257.3696 15.21059758179916
SONATE                  
1 44400U 19038Q   22279.54633559  .00008700  00000+0  45846-3 0  9999
2 44400  97.6485 248.6873 0024852 106.9094 253.4871 15.15568783179759
LUCKY-7                 
1 44406U 19038W   22279.47126443  .00013550  00000+0  68933-3 0  9997
2 44406  97.6505 249.2573 0024145 106.2741 254.1150 15.16701021179785
BEESAT 9                
1 44412U 19038AC  22279.42126580  .00018418  00000+0  88917-3 0  9993
2 44412  97.6474 249.7039 0021732 108.7450 251.6145 15.18508893179524
JAISAT-1                
1 44419U 19038F   22279.50418971  .00017996  00000+0  85755-3 0  9994
2 44419  97.6479 250.7109 0020855 105.6712 254.6825 15.18983578179905
DUCHIFAT-3              
1 44854U 19089C   22279.06737508  .00006276  00000+0  47803-3 0  9995
2 44854  36.9657 164.2689 0007950  28.9663 129.4005 15.01776011154565
EYESAT-NANO             
1 44877U 19092E   22279.45027172  .00024400  00000+0  98668-3 0  9990
2 44877  97.4637 103.2101 0010461 333.0932  26.9762 15.24669061155262
ORBITAL FACTORY 2 (OF-2)
1 45113U 19071C   22279.34113643  .00068668  00000+0  11383-2 0  9990
2 45113  51.6355 231.6268 0007551 203.7267 156.3375 15.51477701150558
M2 PATHFINDER           
1 45727U 20037E   22279.46926913  .00002068  00000+0  20768-3 0  9990
2 45727  97.7418  92.9739 0013392  31.8975 328.3065 14.92301455123381
NETSAT-4                
1 46504U 20068U   22279.50633037  .00005994  00000+0  43756-3 0  9998
2 46504  97.7273 219.1520 0011290 317.2564  42.7805 15.04010357110731
NETSAT-3                
1 46505U 20068V   22279.45846662  .00005238  00000+0  38366-3 0  9995
2 46505  97.7266 219.0087 0011118 327.4972  32.5583 15.03946515110739
NETSAT-1                
1 46506U 20068W   22279.54568678  .00005275  00000+0  38703-3 0  9990
2 46506  97.7283 219.0151 0008463 344.4123  15.6857 15.03895844110742
NETSAT-2                
1 46507U 20068X   22279.55655564  .00005711  00000+0  41871-3 0  9998
2 46507  97.7280 219.0168 0008070 353.8886   6.2352 15.03889051110695
SAI-1 NANOCONNECT-2     
1 47701U 21015C   22279.47683952  .00026421  00000+0  91738-3 0  9999
2 47701  97.4153 355.9795 0011736  65.6313 294.6151 15.29681313 89177
WILDTRACKCUBE-SIMBA     
1 47941U 21022K   22279.49577854  .00005406  00000+0  35423-3 0  9997
2 47941  97.5163 176.6182 0022131 123.2638 340.7897 15.07921676 84726
BEESAT-6                
1 47957U 21022AB  22279.20794654  .00012044  00000+0  74303-3 0  9998
2 47957  97.5135 176.6620 0020419 122.5075  28.6701 15.09895702 84507
SMOG-1                  
1 47964U 21022AJ  22279.45718754  .00016087  00000+0  95063-3 0  9997
2 47964  97.5176 178.2044 0019887 112.0710 248.2635 15.11400813 83643
MMSATS-1                
1 47976U 98067SJ  22279.57634297  .00050702  00000+0  51704-3 0  9991
2 47976  51.6381 124.8772 0001231 138.4556 318.0437 15.64575391 87624
BCCSAT-1                
1 48041U 21022AK  22279.24324868  .00014365  00000+0  87384-3 0  9994
2 48041  97.5175 177.4727 0016705 110.9425 249.3594 15.10424510 83559
BEESAT-5                
1 48083U 21022AM  22279.18733354  .00012707  00000+0  77695-3 0  9999
2 48083  97.5126 176.6597 0021914 125.1655  27.6762 15.10182007 83633
BEESAT-7                
1 48084U 21022AN  22279.25981418  .00012787  00000+0  78555-3 0  9998
2 48084  97.5161 176.7297 0020849 123.3244   3.4409 15.10025514 83236
BEESAT-8                
1 48085U 21022AP  22278.21254368  .00008607  00000+0  53404-3 0  9993
2 48085  97.5167 175.6864 0021498 127.4749  23.8502 15.09759744 83638
RAMSAT                  
1 48850U 98067SL  22279.23451963  .01293773  10739-2  14020-2 0  9993
2 48850  51.6248 102.2895 0008503 271.5518  88.4522 16.09402394 74867
LEDSAT                  
1 49069U 21073D   22279.18596816  .00008456  00000+0  52821-3 0  9990
2 49069  97.5157 349.8805 0024989 275.1390  84.6987 15.09455538 62533
HSU-SAT1                
1 53462U 98067UB  22279.43999450  .00070362  00000+0  10349-2 0  9991
2 53462  51.6389 144.4116 0005310 325.3233  34.7411 15.54791959  8569
FUTABA                  
1 53463U 98067UC  22278.85003281  .00077592  00000+0  11112-2 0  9996
2 53463  51.6391 147.2198 0005044 318.6204  41.4405 15.55478381  8471
TUMNANOSAT              
1 53464U 98067UD  22279.35260379  .00102963  00000+0  14231-2 0  9992
2 53464  51.6388 144.5771 0004982 316.3804  43.6793 15.56312390  8557
BEIJING 1               
1 28890U 05043A   22279.59234404  .00000577  00000+0  12564-3 0  9991
2 28890  98.1310  40.0324 0015285 181.5581 178.5580 14.61505374903376
HJ-1A                   
1 33320U 08041A   22279.45741451  .00000544  00000+0  82101-4 0  9995
2 33320  97.6702 307.2718 0019773 228.8735 131.0780 14.77930979758785
HJ-1B                   
1 33321U 08041B   22279.47650208  .00001205  00000+0  17285-3 0  9992
2 33321  97.6863 311.0780 0032783 248.6452 111.1275 14.77908917758783
YAOGAN 4                
1 33446U 08061A   22279.38130484  .00001259  00000+0  18324-3 0  9995
2 33446  97.8237 216.1715 0017199 131.5466 228.7223 14.77493231745973
DEIMOS-1                
1 35681U 09041A   22279.46263712  .00000479  00000+0  83337-4 0  9997
2 35681  97.7028 124.7822 0000883 155.8280 204.2986 14.72124305708108
UK-DMC 2                
1 35683U 09041C   22279.46765439  .00000797  00000+0  13575-3 0  9991
2 35683  97.7073  86.5960 0000959  79.2552 280.8779 14.71516474707833
RISAT 1                 
1 38248U 12017A   22279.49642153  .00006430  00000+0  37204-3 0  9993
2 38248  97.5534 289.6855 0002625 214.0874 146.0189 15.12591088575606
DMC3-FM1                
1 40715U 15032A   22279.45328177  .00000646  00000+0  87457-4 0  9997
2 40715  97.8292 164.0007 0006451 145.4927 214.6724 14.82211666389735
DMC3-FM2                
1 40716U 15032B   22279.47635463  .00000652  00000+0  88243-4 0  9990
2 40716  97.8333 164.7212 0008340 151.0893 209.0797 14.82204502389741
DMC3-FM3                
1 40717U 15032C   22279.42985915  .00000656  00000+0  88748-4 0  9990
2 40717  97.8370 165.6366 0010352 151.0705 209.1082 14.82232028389732
NOAA 15                 
1 25338U 98030A   22279.69084075  .00000215  00000+0  10782-3 0  9990
2 25338  98.6367 307.7332 0009842 339.1626  20.9151 14.26178246269129
DMSP 5D-3 F15 (USA 147) 
1 25991U 99067A   22279.74375934  .00000239  00000+0  14282-3 0  9994
2 25991  99.0618 273.2666 0009264 230.0810 303.4703 14.16578033179542
METEOSAT-8 (MSG-1)      
1 27509U 02040B   22279.50777774  .00000123  00000+0  00000+0 0  9999
2 27509   8.2420  50.0246 0002766 135.5667  53.8101  1.00275647 73721
DMSP 5D-3 F16 (USA 172) 
1 28054U 03048A   22279.73715008  .00000215  00000+0  13759-3 0  9992
2 28054  98.9983 271.1671 0007606  10.9283 162.3214 14.13690015978748
NOAA 18                 
1 28654U 05018A   22279.68104440  .00000233  00000+0  14942-3 0  9998
2 28654  98.9397 349.9800 0014434  21.3762 338.8010 14.12785258895774
METEOSAT-9 (MSG-2)      
1 28912U 05049B   22279.50864973  .00000114  00000+0  00000+0 0  9998
2 28912   6.2663  65.5450 0002212 183.7112 354.7374  1.00275720 61501
EWS-G1 (GOES 13)        
1 29155U 06018A   22279.77493578  .00000020  00000+0  00000+0 0  9999
2 29155   0.8593  95.2113 0006366 118.9303 141.8085  1.00269029 59972
DMSP 5D-3 F17 (USA 191) 
1 29522U 06050A   22279.72973716  .00000216  00000+0  13614-3 0  9991
2 29522  98.7663 292.6952 0008963 308.6440  51.3930 14.14119987821633
FENGYUN 3A              
1 32958U 08026A   22279.47471431  .00000194  00000+0  11334-3 0  9994
2 32958  98.5163 237.6347 0009836  65.0817 295.1381 14.18745265743967
FENGYUN 2E              
1 33463U 08066A   22279.59418844 -.00000216  00000+0  00000+0 0  9992
2 33463   6.1493  64.6202 0001052  46.8570 204.2631  1.00272074 50558
NOAA 19                 
1 33591U 09005A   22279.69494692  .00000226  00000+0  14719-3 0  9990
2 33591  99.1385 316.1203 0013161 233.1556 126.8409 14.12617983704150
GOES 14                 
1 35491U 09033A   22279.62217823 -.00000112  00000+0  00000+0 0  9993
2 35491   0.3475 266.8555 0017990 307.6995 280.3394  1.00272458 48623
METEOR-M 1              
1 35865U 09049A   22279.47257697  .00000205  00000+0  11107-3 0  9997
2 35865  98.5425 246.4292 0001131 262.6476  97.4574 14.22362520677328
DMSP 5D-3 F18 (USA 210) 
1 35951U 09057A   22279.67721462  .00000290  00000+0  17656-3 0  9999
2 35951  98.7355 256.3856 0011919 126.0529 234.1750 14.13564742668822
GOES 15                 
1 36411U 10008A   22279.63009943  .00000037  00000+0  00000+0 0  9998
2 36411   0.3079 278.1131 0004342 251.8117 303.9520  1.00266604 46127
COMS 1                  
1 36744U 10032A   22279.48799291 -.00000361  00000+0  00000+0 0  9990
2 36744   1.3602  91.9013 0000963 105.0539 122.0124  1.00270364 37557
FENGYUN 3B              
1 37214U 10059A   22279.56670034 -.00000006  00000+0  21168-4 0  9993
2 37214  99.0947 287.5249 0022853  43.9867 316.3124 14.14266789616664
SUOMI NPP               
1 37849U 11061A   22279.70749796  .00000129  00000+0  82131-4 0  9991
2 37849  98.7390 216.7431 0001053  78.6608 343.6859 14.19548533566971
FENGYUN 2F              
1 38049U 12002A   22279.52181060 -.00000372  00000+0  00000+0 0  9995
2 38049   4.0589  78.7800 0000947 357.7959 238.6113  1.00272541 39342
